OBJECT_NAME,OBJECT_ID,EPOCH,MEAN_MOTION,ECCENTRICITY,INCLINATION,RA_OF_ASC_NODE,ARG_OF_PERICENTER,MEAN_ANOMALY,EPHEMERIS_TYPE,CLASSIFICATION_TYPE,NORAD_CAT_ID,ELEMENT_SET_NO,REV_AT_EPOCH,BSTAR,MEAN_MOTION_DOT,MEAN_MOTION_DDOT
ONEWEB-0275,2021-060AC,2026-07-17T02:18:33.520320,13.16596064,.00020073,87.9081,222.8348,95.6589,264.4770,0,U,48993,999,24349,-.22370448E-3,-.73E-6,0
ONEWEB-0276,2021-060AD,2026-07-17T12:13:38.453376,13.16594041,.00019053,87.9076,222.7518,94.9376,265.1973,0,U,48994,999,24356,.4847727E-4,.31E-6,0
ONEWEB-0277,2021-060AE,2026-07-17T12:31:52.896864,13.16595448,.00021641,87.9073,222.7565,97.9598,262.1778,0,U,48995,999,24355,.12603266E-3,.61E-6,0
ONEWEB-0278,2021-060AF,2026-07-17T01:21:35.283168,13.16594141,.00021884,87.9077,222.8412,89.0874,271.0508,0,U,48996,999,24362,.16905885E-3,.77E-6,0
ONEWEB-0279,2021-060AG,2026-07-17T01:32:59.230752,13.16593964,.00020083,87.9079,222.8377,100.7313,259.4044,0,U,48997,999,24355,.24240388E-3,.106E-5,0
ONEWEB-0280,2021-060AH,2026-07-17T01:54:37.937664,13.16595601,.00024335,87.9081,222.8387,93.6675,266.4734,0,U,48998,999,24349,.18050363E-3,.82E-6,0
ONEWEB-0281,2021-060AJ,2026-07-17T07:30:54.724896,13.16591953,.00016716,87.9081,222.7888,82.5351,277.5970,0,U,48999,999,24359,-.53205472E-2,-.2021E-4,0
ONEWEB-0282,2021-060AK,2026-07-17T11:53:06.753984,13.16594792,.00021982,87.9075,222.7595,96.0229,264.1153,0,U,49000,999,24359,-.15050607E-3,-.45E-6,0
ONEWEB-0283,2021-060AL,2026-07-17T11:37:09.171552,13.16593600,.00020497,87.9077,222.7607,97.7744,262.3620,0,U,49001,999,24360,-.15154492E-3,-.45E-6,0
ONEWEB-0284,2021-060AM,2026-07-17T02:20:52.013472,13.16593929,.00023959,87.9080,222.8315,90.4914,269.6492,0,U,49002,999,24353,-.34592249E-3,-.119E-5,0
ONEWEB-0285,2021-075A,2026-07-17T15:09:12.171168,13.12443166,.00015491,87.8974,344.6098,93.5123,266.6183,0,U,49075,999,23920,.28622691E-2,.1043E-4,0
ONEWEB-0286,2021-075B,2026-07-17T09:14:01.789152,13.12443560,.00017512,87.8963,344.6726,89.9854,270.1476,0,U,49076,999,23852,.71250264E-3,.269E-5,0
ONEWEB-0287,2021-075C,2026-07-17T09:20:30.958080,13.17648726,.00018321,87.9147,359.8570,80.0517,280.0821,0,U,49077,999,23760,.81542957E-4,.45E-6,0
ONEWEB-0288,2021-075D,2026-07-16T21:41:22.079328,13.12442756,.00019496,87.8972,344.7475,89.5601,270.5751,0,U,49078,999,23908,-.11193469E-2,-.39E-5,0
ONEWEB-0289,2021-075E,2026-07-17T10:16:24.124800,13.17649930,.00022924,87.9152,359.8681,96.2289,263.9104,0,U,49079,999,23818,.19728934E-3,.89E-6,0
ONEWEB-0290,2021-075F,2026-07-17T09:37:31.122624,13.17650945,.00023822,87.9156,359.8465,96.3638,263.7765,0,U,49080,999,23759,.49394948E-4,.32E-6,0
ONEWEB-0291,2021-075G,2026-07-17T09:15:41.039424,13.17647279,.00020824,87.9150,359.8545,84.8919,275.2450,0,U,49081,999,23758,-.1353476E-5,.12E-6,0
ONEWEB-0293,2021-075H,2026-07-17T09:52:05.647008,13.17650057,.00020367,87.9148,359.8527,92.6444,267.4921,0,U,49082,999,23761,-.61970432E-4,-.11E-6,0
ONEWEB-0294,2021-075J,2026-07-17T08:49:49.114848,13.12444053,.00022091,87.8974,344.6591,97.2260,262.9120,0,U,49083,999,23853,-.66241449E-3,-.226E-5,0
ONEWEB-0295,2021-075K,2026-07-17T09:50:53.360448,13.17649971,.00019569,87.9148,359.8567,83.8928,276.2427,0,U,49084,999,23757,.68307122E-4,.39E-6,0
ONEWEB-0296,2021-075L,2026-07-17T15:39:40.269888,13.12442290,.00020079,87.8973,344.6109,87.6098,272.5260,0,U,49085,999,23857,-.62193352E-3,-.211E-5,0
ONEWEB-0297,2021-075M,2026-07-16T22:05:46.290624,13.12443940,.00018625,87.8962,344.7634,92.6527,267.4815,0,U,49086,999,23908,.33340584E-3,.133E-5,0
ONEWEB-0298,2021-075N,2026-07-17T09:57:11.634336,13.17648631,.00017491,87.9147,359.8541,91.3069,268.8263,0,U,49087,999,23760,.47699264E-4,.31E-6,0
ONEWEB-0299,2021-075P,2026-07-17T09:59:23.999136,13.17648343,.00018356,87.9158,359.8370,88.0006,272.1336,0,U,49088,999,23758,.88074848E-4,.47E-6,0
ONEWEB-0300,2021-075Q,2026-07-17T08:53:28.735872,13.12443442,.0001476,87.8974,344.6564,95.7269,264.4028,0,U,49089,999,23916,-.63690929E-3,-.216E-5,0
ONEWEB-0301,2021-075R,2026-07-17T15:49:25.187520,13.12443122,.00015281,87.8973,344.5966,102.7903,257.3397,0,U,49090,999,23856,-.93706557E-3,-.324E-5,0
ONEWEB-0302,2021-075S,2026-07-17T15:29:57.167520,13.12425320,.00023197,87.8972,344.6119,94.3679,265.7715,0,U,49091,999,23854,-.46300477E-2,-.1652E-4,0
ONEWEB-0304,2021-075T,2026-07-17T09:22:57.046656,13.17647807,.00018933,87.9145,359.8614,87.7978,272.3370,0,U,49092,999,23755,.67367452E-4,.39E-6,0
ONEWEB-0305,2021-075U,2026-07-17T11:02:34.726560,13.17648378,.00018603,87.9157,359.8341,81.0165,279.1177,0,U,49093,999,23759,.67161137E-4,.39E-6,0
ONEWEB-0308,2021-075V,2026-07-17T15:20:09.439296,13.12441574,.00018836,87.8975,344.6055,97.8866,262.2477,0,U,49094,999,23855,.92565716E-3,.346E-5,0
