ONEWEB-0275             
1 48993U 21060AC  26198.09622130 -.00000073  00000+0 -22370-3 0  9999
2 48993  87.9081 222.8348 0002007  95.6589 264.4770 13.16596064243491
ONEWEB-0276             
1 48994U 21060AD  26198.50947284  .00000031  00000+0  48477-4 0  9995
2 48994  87.9076 222.7518 0001905  94.9376 265.1973 13.16594041243560
ONEWEB-0277             
1 48995U 21060AE  26198.52214001  .00000061  00000+0  12603-3 0  9996
2 48995  87.9073 222.7565 0002164  97.9598 262.1778 13.16595448243558
ONEWEB-0278             
1 48996U 21060AF  26198.05665837  .00000077  00000+0  16906-3 0  9999
2 48996  87.9077 222.8412 0002188  89.0874 271.0508 13.16594141243627
ONEWEB-0279             
1 48997U 21060AG  26198.06457443  .00000106  00000+0  24240-3 0  9996
2 48997  87.9079 222.8377 0002008 100.7313 259.4044 13.16593964243559
ONEWEB-0280             
1 48998U 21060AH  26198.07960576  .00000082  00000+0  18050-3 0  9999
2 48998  87.9081 222.8387 0002433  93.6675 266.4734 13.16595601243494
ONEWEB-0281             
1 48999U 21060AJ  26198.31313339 -.00002021  00000+0 -53205-2 0  9993
2 48999  87.9081 222.7888 0001671  82.5351 277.5970 13.16591953243593
ONEWEB-0282             
1 49000U 21060AK  26198.49521706 -.00000045  00000+0 -15051-3 0  9997
2 49000  87.9075 222.7595 0002198  96.0229 264.1153 13.16594792243593
ONEWEB-0283             
1 49001U 21060AL  26198.48413393 -.00000045  00000+0 -15154-3 0  9993
2 49001  87.9077 222.7607 0002049  97.7744 262.3620 13.16593600243603
ONEWEB-0284             
1 49002U 21060AM  26198.09782423 -.00000119  00000+0 -34592-3 0  9993
2 49002  87.9080 222.8315 0002395  90.4914 269.6492 13.16593929243531
ONEWEB-0285             
1 49075U 21075A   26198.63139087  .00001043  00000+0  28623-2 0  9993
2 49075  87.8974 344.6098 0001549  93.5123 266.6183 13.12443166239205
ONEWEB-0286             
1 49076U 21075B   26198.38474293  .00000269  00000+0  71250-3 0  9991
2 49076  87.8963 344.6726 0001751  89.9854 270.1476 13.12443560238524
ONEWEB-0287             
1 49077U 21075C   26198.38924720  .00000045  00000+0  81543-4 0  9996
2 49077  87.9147 359.8570 0001832  80.0517 280.0821 13.17648726237601
ONEWEB-0288             
1 49078U 21075D   26197.90372777 -.00000390  00000+0 -11193-2 0  9990
2 49078  87.8972 344.7475 0001949  89.5601 270.5751 13.12442756239081
ONEWEB-0289             
1 49079U 21075E   26198.42805700  .00000089  00000+0  19729-3 0  9993
2 49079  87.9152 359.8681 0002292  96.2289 263.9104 13.17649930238184
ONEWEB-0290             
1 49080U 21075F   26198.40105466  .00000032  00000+0  49395-4 0  9996
2 49080  87.9156 359.8465 0002382  96.3638 263.7765 13.17650945237592
ONEWEB-0291             
1 49081U 21075G   26198.38589166  .00000012  00000+0 -13535-5 0  9994
2 49081  87.9150 359.8545 0002082  84.8919 275.2450 13.17647279237581
ONEWEB-0293             
1 49082U 21075H   26198.41117647 -.00000011  00000+0 -61970-4 0  9995
2 49082  87.9148 359.8527 0002036  92.6444 267.4921 13.17650057237616
ONEWEB-0294             
1 49083U 21075J   26198.36792957 -.00000226  00000+0 -66241-3 0  9996
2 49083  87.8974 344.6591 0002209  97.2260 262.9120 13.12444053238530
ONEWEB-0295             
1 49084U 21075K   26198.41033982  .00000039  00000+0  68307-4 0  9995
2 49084  87.9148 359.8567 0001956  83.8928 276.2427 13.17649971237578
ONEWEB-0296             
1 49085U 21075L   26198.65254942 -.00000211  00000+0 -62193-3 0  9993
2 49085  87.8973 344.6109 0002007  87.6098 272.5260 13.12442290238571
ONEWEB-0297             
1 49086U 21075M   26197.92067466  .00000133  00000+0  33341-3 0  9990
2 49086  87.8962 344.7634 0001862  92.6527 267.4815 13.12443940239084
ONEWEB-0298             
1 49087U 21075N   26198.41471799  .00000031  00000+0  47699-4 0  9993
2 49087  87.9147 359.8541 0001749  91.3069 268.8263 13.17648631237603
ONEWEB-0299             
1 49088U 21075P   26198.41624999  .00000047  00000+0  88075-4 0  9996
2 49088  87.9158 359.8370 0001835  88.0006 272.1336 13.17648343237582
ONEWEB-0300             
1 49089U 21075Q   26198.37047148 -.00000216  00000+0 -63691-3 0  9993
2 49089  87.8974 344.6564 0001476  95.7269 264.4028 13.12443442239168
ONEWEB-0301             
1 49090U 21075R   26198.65931930 -.00000324  00000+0 -93707-3 0  9998
2 49090  87.8973 344.5966 0001528 102.7903 257.3397 13.12443122238564
ONEWEB-0302             
1 49091U 21075S   26198.64580055 -.00001652  00000+0 -46300-2 0  9997
2 49091  87.8972 344.6119 0002319  94.3679 265.7715 13.12425320238545
ONEWEB-0304             
1 49092U 21075T   26198.39093804  .00000039  00000+0  67367-4 0  9995
2 49092  87.9145 359.8614 0001893  87.7978 272.3370 13.17647807237553
ONEWEB-0305             
1 49093U 21075U   26198.46012415  .00000039  00000+0  67161-4 0  9995
2 49093  87.9157 359.8341 0001860  81.0165 279.1177 13.17648378237591
ONEWEB-0308             
1 49094U 21075V   26198.63899814  .00000346  00000+0  92566-3 0  9998
2 49094  87.8975 344.6055 0001883  97.8866 262.2477 13.12441574238558
